Address,County,City,State,Zip,Bank
1 Lincoln St. ,Suffolk,Boston,MA,02111,State Street Bank And Trust Company
280 Congress Street,Suffolk,Boston,MA,02210,Manufacturers And Traders Trust Company
50 Rowes Wharf,Suffolk,Boston,MA,02110,"Jpmorgan Chase Bank, National Association"
1 Boston Pl,Suffolk,Boston,MA,02108,The Bank Of New York Mellon
"1 International Place, 100 Oliver Street",Suffolk,Boston,MA,02110,The Northern Trust Company
1237 Commonwealth Avenue,Suffolk,Allston,MA,02134,"Bank Of America, National Association"
175 Federal Street,Suffolk,Boston,MA,02110,"Bank Of America, National Association"
50 Milk Street,Suffolk,Boston,MA,02109,"Bank Of America, National Association"
1440 Dorchester Avenue,Suffolk,Boston,MA,02122,"Bank Of America, National Association"
161 Cambridge Street,Suffolk,Boston,MA,02114,"Bank Of America, National Association"
630 Washington Street,Suffolk,Boston,MA,02111,"Bank Of America, National Association"
440 Boylston Street,Suffolk,Boston,MA,02116,"Bank Of America, National Association"
60 State Street,Suffolk,Boston,MA,02109,"Bank Of America, National Association"
1857 Centre Street,Suffolk,Boston,MA,02132,"Bank Of America, National Association"
1219 River Street,Suffolk,Boston,MA,02136,"Bank Of America, National Association"
260 Hanover Street,Suffolk,Boston,MA,02113,"Bank Of America, National Association"
114 Dudley Street,Suffolk,Boston,MA,02119,"Bank Of America, National Association"
855 Boylston Street,Suffolk,Boston,MA,02116,"Bank Of America, National Association"
1614 Tremont Street,Suffolk,Boston,MA,02120,"Bank Of America, National Association"
540 Commonwealth Avenue,Suffolk,Boston,MA,02215,"Bank Of America, National Association"
771 Commonwealth Avenue,Suffolk,Boston,MA,02215,"Bank Of America, National Association"
460 West Broadway,Suffolk,Boston,MA,02127,"Bank Of America, National Association"
100 Federal Street,Suffolk,Boston,MA,02110,"Bank Of America, National Association"
740 Gallivan Boulevard,Suffolk,Boston,MA,02122,"Bank Of America, National Association"
133 Massachusetts Avenue,Suffolk,Boston,MA,02115,"Bank Of America, National Association"
29 Corinth Street,Suffolk,Boston,MA,02131,"Bank Of America, National Association"
699 Boylston Street,Suffolk,Boston,MA,02116,"Bank Of America, National Association"
333 Longwood Avenue,Suffolk,Boston,MA,02115,"Bank Of America, National Association"
285 Huntington Avenue,Suffolk,Boston,MA,02115,"Bank Of America, National Association"
125 High Street,Suffolk,Boston,MA,02110,"Bank Of America, National Association"
65 Franklin Street,Suffolk,Boston,MA,02110,"Bank Of America, National Association"
557-569a Tremont Street,Suffolk,Boston,MA,02118,"Bank Of America, National Association"
6 Tremont Street,Suffolk,Boston,MA,02108,"Bank Of America, National Association"
225 Franklin Street,Suffolk,Boston,MA,02110,"Bank Of America, National Association"
350 Chestnut Hill Avenue,Suffolk,Brighton,MA,02135,"Bank Of America, National Association"
5 Chestnut Hill Avenue,Suffolk,Brighton,MA,02135,"Bank Of America, National Association"
470 Blue Hill Avenue,Suffolk,Dorchester,MA,02121,"Bank Of America, National Association"
618 Washington Street,Suffolk,Dorchester,MA,02124,"Bank Of America, National Association"
1104 Massachusetts Avenue,Suffolk,Dorchester,MA,02125,"Bank Of America, National Association"
677 Centre Street,Suffolk,Jamaica Plain,MA,02130,"Bank Of America, National Association"
315 Centre Street,Suffolk,Jamaica Plain,MA,02130,"Bank Of America, National Association"
1659 Blue Hill Avenue,Suffolk,Mattapan,MA,02126,"Bank Of America, National Association"
200 Berkeley Street,Suffolk,Boston,MA,02116,"Wells Fargo Bank, National Association"
111 Huntington Avenue,Suffolk,Boston,MA,02199,"Citibank, National Association"
One Boston Place,Suffolk,Boston,MA,02108,"Bny Mellon, National Association"
75 State St.,Suffolk,Boston,MA,02109,Cambridge Trust Company
565 Tremont Street,Suffolk,Boston,MA,02118,Cambridge Trust Company
65 Beacon Street,Suffolk,Boston,MA,02108,Cambridge Trust Company
229 North Harvard Street,Suffolk,Allston,MA,02134,Rockland Trust Company
435 Market St,Suffolk,Brighton,MA,02135,Rockland Trust Company
725 Centre Street,Suffolk,Jamaica Plain,MA,02130,Rockland Trust Company
1905 Centre Street,Suffolk,West Roxbury,MA,02132,Rockland Trust Company
61-65 Brookline Avenue,Suffolk,Boston,MA,02215,Commerce Bank & Trust Company
1320 Washington Street,Suffolk,Boston,MA,02118,Commerce Bank & Trust Company
423 Washington Street,Suffolk,Brighton,MA,02135,Commerce Bank & Trust Company
131 Clarendon Street,Suffolk,Boston,MA,02117,Brookline Bank
31-33 State Street,Suffolk,Boston,MA,02109,Brookline Bank
1808 Centre Street,Suffolk,West Roxbury,MA,02132,Brookline Bank
25 Stuart Street,Suffolk,Boston,MA,02116,"Webster Bank, National Association"
1367 - 1375 Boylston Street,Suffolk,Boston,MA,02115,"Webster Bank, National Association"
880 Commonwealth Ave,Suffolk,Boston,MA,02215,"Webster Bank, National Association"
1365 Washington Street,Suffolk,Boston,MA,02118,"Webster Bank, National Association"
70 Summer Street,Suffolk,Boston,MA,02110,"Webster Bank, National Association"
100 Cambridge Street,Suffolk,Boston,MA,02114,"Webster Bank, National Association"
491 Boylston Street,Suffolk,Boston,MA,02116,"Webster Bank, National Association"
100 Franklin Street,Suffolk,Boston,MA,02110,"Webster Bank, National Association"
One Beacon Street,Suffolk,Boston,MA,02108,Boston Trust & Investment Management Company
185 Franklin Street,Suffolk,Boston,MA,02110,"Td Bank, National Association"
535 Boylston Street,Suffolk,Boston,MA,02116,"Td Bank, National Association"
250 Cambridge Street,Suffolk,Boston,MA,02114,"Td Bank, National Association"
200 State Street,Suffolk,Boston,MA,02109,"Td Bank, National Association"
1232 Commonwealth Avenue,Suffolk,Boston,MA,02134,"Td Bank, National Association"
1 Union And 6 North Streets,Suffolk,Boston,MA,02108,"Td Bank, National Association"
24 Winter Street,Suffolk,Boston,MA,02108,"Td Bank, National Association"
391 Market Street,Suffolk,Brighton,MA,02135,"Td Bank, National Association"
1833 Centre St,Suffolk,West Roxbury,MA,02132,"Td Bank, National Association"
621 Washington Street,Suffolk,Boston,MA,02111,Cathay Bank
300 Western Avenue,Suffolk,Boston,MA,02134,Century Bank And Trust Company
275 Hanover Street,Suffolk,Boston,MA,02113,Century Bank And Trust Company
24 Federal Street,Suffolk,Boston,MA,02110,Century Bank And Trust Company
136 State Street,Suffolk,Boston,MA,02110,Century Bank And Trust Company
437 Boylston Street,Suffolk,Boston,MA,02116,Century Bank And Trust Company
52 Congress Street,Suffolk,Boston,MA,02109,Salem Five Cents Savings Bank
636 East Broadway,Suffolk,South Boston,MA,02127,Dedham Institution For Savings
100 Franklin St,Suffolk,Boston,MA,02110,Oneunited Bank
2343 Washington Street,Suffolk,Boston,MA,02108,Oneunited Bank
648 Warren Street,Suffolk,Dorchester,MA,02121,Oneunited Bank
Ten Post Office Square,Suffolk,Boston,MA,02109,Boston Private Bank & Trust Company
500 Boylston Street,Suffolk,Boston,MA,02116,Boston Private Bank & Trust Company
800 Boylston Street,Suffolk,Boston,MA,02199,Boston Private Bank & Trust Company
157 Seaport Boulevard,Suffolk,Boston,MA,02210,Boston Private Bank & Trust Company
185 Dartmouth Street,Suffolk,Boston,MA,02116,"First American Trust, Fsb"
One Federal St,Suffolk,Boston,MA,02110,Wellesley Bank
2250 Dorchester Avenue,Suffolk,Boston,MA,02124,Meetinghouse Bank
4238 Washington Street,Suffolk,Roslindale,MA,02131,Meetinghouse Bank
201 Main Street,Suffolk,Charlestown,MA,02129,The Cooperative Bank
40 Belgrade Avenue,Suffolk,Roslindale,MA,02131,The Cooperative Bank
36 Springs Street,Suffolk,West Roxbury,MA,02132,The Cooperative Bank
579 Boylston Street,Suffolk,Boston,MA,02116,Admirals Bank
One Post Office Square,Suffolk,Boston,MA,02109,"People's United Bank, National Association"
425 Boylston Street,Suffolk,Boston,MA,02116,"People's United Bank, National Association"
218 Cambridge Street,Suffolk,Boston,MA,02114,"People's United Bank, National Association"
800 Boylston St - Space 301,Suffolk,Boston,MA,02199,"People's United Bank, National Association"
50 Milk Street,Suffolk,Boston,MA,02110,"People's United Bank, National Association"
25 Court Street,Suffolk,Boston,MA,02108,Commonwealth Co-Operative Bank
1172 River St,Suffolk,Hyde Park,MA,02136,Commonwealth Co-Operative Bank
3815 Washington Street,Suffolk,Jamaica Plain,MA,02130,Commonwealth Co-Operative Bank
850 Harriosn Ave,Suffolk,Boston,MA,02118,"Santander Bank, N.A."
575 Boylston St,Suffolk,Boston,MA,02116,"Santander Bank, N.A."
521 Tremont St,Suffolk,Boston,MA,02116,"Santander Bank, N.A."
279 Massachusetts Avenue,Suffolk,Boston,MA,02115,"Santander Bank, N.A."
30 Winter Street,Suffolk,Boston,MA,02108,"Santander Bank, N.A."
75 State Street,Suffolk,Boston,MA,02109,"Santander Bank, N.A."
One Federal Street,Suffolk,Boston,MA,02110,"Santander Bank, N.A."
2 Morrissey Boulevard,Suffolk,Boston,MA,02125,"Santander Bank, N.A."
One Beacon Street,Suffolk,Boston,MA,02108,"Santander Bank, N.A."
6 Francis Street,Suffolk,Boston,MA,02115,"Santander Bank, N.A."
800 Boylston Street,Suffolk,Boston,MA,02199,"Santander Bank, N.A."
437 Rutherford Avenue,Suffolk,Boston,MA,02129,"Santander Bank, N.A."
43 Kneeland Street,Suffolk,Boston,MA,02111,"Santander Bank, N.A."
3060 Washington Stree,Suffolk,Boston,MA,02119,"Santander Bank, N.A."
125 Summer Street,Suffolk,Boston,MA,02110,"Santander Bank, N.A."
100 Oliver Street,Suffolk,Boston,MA,02110,"Santander Bank, N.A."
287 Hanover Street,Suffolk,Boston,MA,02113,"Santander Bank, N.A."
552 Commonwealth Avenue,Suffolk,Boston,MA,02215,"Santander Bank, N.A."
780 Gallivan Rd,Suffolk,Boston,MA,02122,"Santander Bank, N.A."
200 Seaport Blvd,Suffolk,Boston,MA,02210,"Santander Bank, N.A."
61 Harrison Avenue,Suffolk,Boston,MA,02111,"Santander Bank, N.A."
67 Beacon Street,Suffolk,Boston,MA,02108,"Santander Bank, N.A."
61 Arlington Street,Suffolk,Boston,MA,02116,"Santander Bank, N.A."
125 Causeway Street,Suffolk,Boston,MA,02114,"Santander Bank, N.A."
30 Birmingham Parkway,Suffolk,Brighton,MA,02135,"Santander Bank, N.A."
415 Market Street,Suffolk,Brighton,MA,02135,"Santander Bank, N.A."
1442 Dorchester Avenue,Suffolk,Dorchester,MA,02122,"Santander Bank, N.A."
585 Columbia Road,Suffolk,Dorchester,MA,02125,"Santander Bank, N.A."
2 Meridian Street,Suffolk,East Boston,MA,02128,"Santander Bank, N.A."
860 River St,Suffolk,Hyde Park,MA,02136,"Santander Bank, N.A."
1617 Blue Hill Avenue,Suffolk,Mattapan,MA,02126,"Santander Bank, N.A."
330 Martin Luther King Boulevard,Suffolk,Roxbury,MA,02119,"Santander Bank, N.A."
474 West Broadway,Suffolk,South Boston,MA,02127,"Santander Bank, N.A."
1850 Centre Street,Suffolk,West Roxbury,MA,02132,"Santander Bank, N.A."
68 Harrison Avenue,Suffolk,Boston,MA,02111,East West Bank
"1 Harbor St, Ste 102",Suffolk,Boston,MA,02210,Radius Bank
265 Franklin Street,Suffolk,Boston,MA,02110,Eastern Bank
63 Franklin St,Suffolk,Boston,MA,02110,Eastern Bank
155 Dartmouth Street,Suffolk,Boston,MA,02116,Eastern Bank
1906 Dorchester Avenue,Suffolk,Dorchester,MA,02124,Eastern Bank
246 Border Street,Suffolk,East Boston,MA,02128,Eastern Bank
687 Centre Street,Suffolk,Jamaica Plain,MA,02130,Eastern Bank
470 West Broadway,Suffolk,South Boston,MA,02127,Eastern Bank
125 High Street,Suffolk,Boston,MA,02110,Goldman Sachs Bank Usa
177 Brighton Avenue,Suffolk,Allston,MA,02134,East Boston Savings Bank
10 Meridian Street,Suffolk,Boston,MA,02128,East Boston Savings Bank
95 Kneeland Street,Suffolk,Boston,MA,02111,East Boston Savings Bank
1134 Washington Street,Suffolk,Boston,MA,02118,East Boston Savings Bank
856 Bennington Street,Suffolk,Boston,MA,02128,East Boston Savings Bank
1 Bennington Street,Suffolk,Boston,MA,02128,East Boston Savings Bank
515 Centre Street,Suffolk,Boston,MA,02130,East Boston Savings Bank
305 Talbot Avenue,Suffolk,Dorchester,MA,02124,East Boston Savings Bank
489 Gallivan Boulevard,Suffolk,Dorchester,MA,02124,East Boston Savings Bank
960 Morrissey Blvd.,Suffolk,Dorchester,MA,02122,East Boston Savings Bank
501 South Hampton Street,Suffolk,South Boston,MA,02127,East Boston Savings Bank
708 East Broadway,Suffolk,South Boston,MA,02127,East Boston Savings Bank
430 West Broadway,Suffolk,South Boston,MA,02127,East Boston Savings Bank
1981-1985 Centre Street,Suffolk,West Roxbury,MA,02132,East Boston Savings Bank
280 Congress Street,Suffolk,Boston,MA,02210,"Wilmington Trust, National Association"
245 Summer Street,Suffolk,Boston,MA,02210,"Fidelity Personal Trust Company, Fsb"
48 Northern Avenue,Suffolk,Boston,MA,02210,"Leader Bank, National Association"
60 Everett Street,Suffolk,Allston,MA,02134,"Citizens Bank, National Association"
771 Commonwealth Avenue,Suffolk,Boston,MA,02215,"Citizens Bank, National Association"
315 Hanover Street,Suffolk,Boston,MA,02113,"Citizens Bank, National Association"
580 Washington Street,Suffolk,Boston,MA,02111,"Citizens Bank, National Association"
40 Summer Street,Suffolk,Boston,MA,02110,"Citizens Bank, National Association"
1355 Washington Street,Suffolk,Boston,MA,02118,"Citizens Bank, National Association"
1628 Tremont Street,Suffolk,Boston,MA,02120,"Citizens Bank, National Association"
435 Brookline Avenue,Suffolk,Boston,MA,02215,"Citizens Bank, National Association"
426 Boylston Street,Suffolk,Boston,MA,02116,"Citizens Bank, National Association"
One Financial Center,Suffolk,Boston,MA,02111,"Citizens Bank, National Association"
77 Franklin Street Lobby,Suffolk,Boston,MA,02110,"Citizens Bank, National Association"
73 Tremont Street,Suffolk,Boston,MA,02108,"Citizens Bank, National Association"
607 Boylston Street,Suffolk,Boston,MA,02116,"Citizens Bank, National Association"
53 State Street,Suffolk,Boston,MA,02109,"Citizens Bank, National Association"
28 State Street,Suffolk,Boston,MA,02109,"Citizens Bank, National Association"
560 Commonwealth Avenue,Suffolk,Boston,MA,02215,"Citizens Bank, National Association"
35 Washington Street,Suffolk,Brighton,MA,02135,"Citizens Bank, National Association"
414 Washington Street,Suffolk,Brighton,MA,02135,"Citizens Bank, National Association"
5 Austin Street,Suffolk,Charlestown,MA,02129,"Citizens Bank, National Association"
673 Vfw Parkway,Suffolk,Chestnut Hill,MA,02467,"Citizens Bank, National Association"
1100 Massachusetts Avenue,Suffolk,Dorchester,MA,02125,"Citizens Bank, National Association"
569-571 Washington Street,Suffolk,Dorchester,MA,02124,"Citizens Bank, National Association"
731 Morrissey Boulevard,Suffolk,Dorchester,MA,02122,"Citizens Bank, National Association"
217 Adams Street,Suffolk,Dorchester,MA,02122,"Citizens Bank, National Association"
572 Columbia Road,Suffolk,Dorchester,MA,02125,"Citizens Bank, National Association"
26 Central Square,Suffolk,East Boston,MA,02128,"Citizens Bank, National Association"
1377 Hyde Park Avenue,Suffolk,Hyde Park,MA,02136,"Citizens Bank, National Association"
696 Centre Street,Suffolk,Jamaica Plain,MA,02130,"Citizens Bank, National Association"
1575 Blue Hill Avenue,Suffolk,Mattapan,MA,02126,"Citizens Bank, National Association"
950 American Legion Highway,Suffolk,Roslindale,MA,02131,"Citizens Bank, National Association"
777 South Street,Suffolk,Roslindale,MA,02131,"Citizens Bank, National Association"
2343 Washington Street,Suffolk,Roxbury,MA,02119,"Citizens Bank, National Association"
441 West Broadway,Suffolk,South Boston,MA,02127,"Citizens Bank, National Association"
1999 Centre Street,Suffolk,West Roxbury,MA,02132,"Citizens Bank, National Association"
772 Boylston St,Suffolk,Boston,MA,02199,First Republic Bank
One Post Office Square,Suffolk,Boston,MA,02109,First Republic Bank
160 Federal Street,Suffolk,Boston,MA,02110,First Republic Bank
1196 River Street,Suffolk,Boston,MA,02136,Blue Hills Bank
87 Seaport Boulevard,Suffolk,Boston,MA,02210,Blue Hills Bank
1065 Truman Parkway,Suffolk,Boston,MA,02136,Blue Hills Bank
1920 Centre Street,Suffolk,West Roxbury,MA,02132,Blue Hills Bank
389 Hanover Street,Suffolk,Boston,MA,02113,Eagle Bank
540 Tremont Street,Suffolk,Boston,MA,02116,Hingham Institution For Savings
80 Charles Street,Suffolk,Boston,MA,02114,Hingham Institution For Savings
100 Federal Street,Suffolk,Boston,MA,02110,"Atlantic Trust Company, National Association"
800 Washington Street,Suffolk,Boston,MA,02111,Alpha Credit Union
1196 River Street,Suffolk,Hyde Park,MA,02136,Blue Hills Bank
1065 Truman Parkway,Suffolk,Hyde Park,MA,02136,Blue Hills Bank
1920 Centre Street,Suffolk,West Roxbury,MA,02132,Blue Hills Bank
800 Boylston Street,Suffolk,Boston,MA,02199,Boston Private Bank & Trust Company
157 Seaport Boulevard,Suffolk,Boston,MA,02210,Boston Private Bank & Trust Company
500 Boylston Street,Suffolk,Boston,MA,02116,Boston Private Bank & Trust Company
131 Clarendon Street,Suffolk,Boston,MA,02190,Brookline Bank
31-33 State Street,Suffolk,Boston,MA,02109,Brookline Bank
1808 Centre Street,Suffolk,West Roxbury,MA,02132,Brookline Bank
565 Tremont Street,Suffolk,Boston,MA,02118,Cambridge Trust Company
65 Beacon Street,Suffolk,Boston,MA,02108,Cambridge Trust Company
300 Western Avenue,Suffolk,Allston,MA,02134,Century Bank and Trust Company
275 Hanover Street,Suffolk,Boston,MA,02113,Century Bank and Trust Company
24 Federal Street,Suffolk,Boston,MA,02110,Century Bank and Trust Company
437 Boylston Street,Suffolk,Boston,MA,02116,Century Bank and Trust Company
136 State Street,Suffolk,Boston,MA,02110,Century Bank and Trust Company
"City Hall, Room 242",Suffolk,Boston,MA,02201,City of Boston Credit Union
1010 Morrissey Boulevard,Suffolk,Dorchester,MA,02122,City of Boston Credit Union
77 Spring Street,Suffolk,West Roxbury,MA,02132,City of Boston Credit Union
1320 Washington Street,Suffolk,Boston,MA,02118,Commerce Bank & Trust Company
61 Brookline Avenue,Suffolk,Boston,MA,02215,Commerce Bank & Trust Company
423 Washington Street,Suffolk,Brighton,MA,02135,Commerce Bank & Trust Company
25 Court Street,Suffolk,Boston,MA,02108,Commonwealth Cooperative Bank
3815 Washington Street,Suffolk,Jamaica Plain,MA,02130,Commonwealth Cooperative Bank
389 Hanover Street,Suffolk,Boston,MA,02113,Eagle Bank
177-181 Brighton Avenue,Suffolk,Allston,MA,02134,East Boston Savings Bank
1134 Washington Street,Suffolk,Boston,MA,02118,East Boston Savings Bank
95 Kneeland Street,Suffolk,Boston,MA,02111,East Boston Savings Bank
960 Morrissey Boulevard,Suffolk,Dorchester,MA,02124,East Boston Savings Bank
305 Talbot Avenue,Suffolk,Dorchester,MA,02124,East Boston Savings Bank
489 Gallivan Blvd.,Suffolk,Dorchester,MA,02124,East Boston Savings Bank
1 Bennington Street,Suffolk,East Boston,MA,02128,East Boston Savings Bank
856 Bennington Street,Suffolk,East Boston,MA,02128,East Boston Savings Bank
10 Meridian Street,Suffolk,East Boston,MA,02128,East Boston Savings Bank
515 Centre Street,Suffolk,Jamaica Plain,MA,02130,East Boston Savings Bank
430 West Broadway,Suffolk,South Boston,MA,02127,East Boston Savings Bank
708 East Broadway,Suffolk,South Boston,MA,02127,East Boston Savings Bank
501 Southampton Street,Suffolk,South Boston,MA,02127,East Boston Savings Bank
1981-1985 Centre Street,Suffolk,West Roxbury,MA,02132,East Boston Savings Bank
265 Franklin Street,Suffolk,Boston,MA,02110,Eastern Bank
63 Franklin Street,Suffolk,Boston,MA,02110,Eastern Bank
155 Dartmouth Street,Suffolk,Boston,MA,02116,Eastern Bank
1906 Dorcester Avenue,Suffolk,Dorchester,MA,02124,Eastern Bank
"Shaw's Market, 246 Border Street",Suffolk,East Boston,MA,02128,Eastern Bank
687 Centre Street,Suffolk,Jamaica Plain,MA,02130,Eastern Bank
470 West Broadway,Suffolk,South Boston,MA,02127,Eastern Bank
100 Swift Street,Suffolk,East Boston,MA,02128,First Priority Credit Union
677 Huntington Avenue (Kresge Bld),Suffolk,Boston,MA,02114,Harvard University Employees Credit Union
"Mass General Hospital, Fruit Street",Suffolk,Boston,MA,02115,Harvard University Employees Credit Union
149 13th Street ,Suffolk,Charlestown,MA,02129,Harvard University Employees Credit Union
80 Charles Street,Suffolk,Boston,MA,02114,Hingham Institution for Savings
540 Tremont Street,Suffolk,Boston,MA,02116,Hingham Institution for Savings
131 Oliver Street,Suffolk,Boston,MA,02110,Liberty Bay Credit Union
409 D Street,Suffolk,South Boston,MA,02210,Mass Bay Credit Union
4238 Washington Street,Suffolk,Roslindale,MA,02131,Meetinghouse Bank
1165 Massachusetts Ave.,Suffolk,Dorchester,MA,02125,Members Plus Credit Union
494 Gallivan Blvd.,Suffolk,Dorchester,MA,02124,Members Plus Credit Union
1071 Massachusetts Avenue,Suffolk,Boston,MA,02118,Metro Credit Union
710 Albany Street,Suffolk,Boston,MA,02118,Metro Credit Union
922 Commonwealth Avenue,Suffolk,Boston,MA,02215,Metro Credit Union
100 City Hall Plaza Sears Crescent Building,Suffolk,Boston,MA,02108,Metro Credit Union
648 Warren Street,Suffolk,Dorchester,MA,02121,OneUnited Bank
2343 Washington Street,Suffolk,Roxbury,MA,02119,OneUnited Bank
19 School Street,Suffolk,Boston,MA,02119,Randolph Savings Bank
256 Freeport Street,Suffolk,Dorchester,MA,02122,River Works Credit Union
229 N. Harvard Street,Suffolk,Allston,MA,02134,Rockland Trust Company
435 Market Street,Suffolk,Brighton,MA,02135,Rockland Trust Company
725 Centre Street,Suffolk,Jamaica Plain,MA,02130,Rockland Trust Company
1905 Centre Street,Suffolk,West Roxbury,MA,02132,Rockland Trust Company
52 Congress Street,Suffolk,Boston,MA,02109,Salem Five Cents Savings Bank
201 Main Street,Suffolk,Charlestown,MA,02129,The Co-operative Bank
36 Spring Street,Suffolk,West Roxbury,MA,02132,The Co-operative Bank
180 Mount Vernon Street,Suffolk,Dorchester,MA,02125,Tremont Credit Union
10 Corinth Street,Suffolk,Roslindale,MA,02131,Tremont Credit Union
One Federal Street,Suffolk,Boston,MA,02110,Wellesley Bank
